{
  "type": "FeatureCollection",
  "features": [
    {
      "type": "Feature",
      "properties": {
        "norad_id": 29760,
        "name": "FENGYUN 1C DEB",
        "group": "fengyun-1c-debris",
        "lat": 12.236688636149266,
        "lon": -175.59047841057185,
        "alt_km": 786.4314122664127,
        "timestamp": "2025-12-26T17:24:54.990571+00:00",
        "meta_object_name": "FENGYUN 1C DEB",
        "meta_object_id": "1999-025BA",
        "meta_epoch": "2025-12-26T06:24:02.043648",
        "meta_mean_motion": 14.08297348,
        "meta_eccentricity": 0.013141,
        "meta_inclination": 98.7625,
        "meta_ra_of_asc_node": 2.0468,
        "meta_arg_of_pericenter": 135.5008,
        "meta_mean_anomaly": 225.6806,
        "meta_ephemeris_type": 0,
        "meta_classification_type": "U",
        "meta_norad_cat_id": 29760,
        "meta_element_set_no": 999,
        "meta_rev_at_epoch": 97283,
        "meta_bstar": 7.6620985e-05,
        "meta_mean_motion_dot": 1e-06,
        "meta_mean_motion_ddot": 0,
        "tle_line1": "1 29760U 99025BA  25360.26669032  .00000100  00000+0  76621-4 0  9995",
        "tle_line2": "2 29760  98.7625   2.0468 0131410 135.5008 225.6806 14.08297348972839"
      },
      "geometry": {
        "type": "Point",
        "coordinates": [
          -175.59047841057185,
          12.236688636149266
        ]
      }
    },
    {
      "type": "Feature",
      "properties": {
        "norad_id": 29762,
        "name": "FENGYUN 1C DEB",
        "group": "fengyun-1c-debris",
        "lat": 48.123145978527745,
        "lon": 172.8567677500704,
        "alt_km": 952.4680128581367,
        "timestamp": "2025-12-26T17:24:54.990582+00:00",
        "meta_object_name": "FENGYUN 1C DEB",
        "meta_object_id": "1999-025BC",
        "meta_epoch": "2025-12-26T05:04:13.133568",
        "meta_mean_motion": 14.22610152,
        "meta_eccentricity": 0.02033458,
        "meta_inclination": 98.5807,
        "meta_ra_of_asc_node": 342.6598,
        "meta_arg_of_pericenter": 296.3637,
        "meta_mean_anomaly": 82.5568,
        "meta_ephemeris_type": 0,
        "meta_classification_type": "U",
        "meta_norad_cat_id": 29762,
        "meta_element_set_no": 999,
        "meta_rev_at_epoch": 98140,
        "meta_bstar": 0.000362551,
        "meta_mean_motion_dot": 9.53e-06,
        "meta_mean_motion_ddot": 0,
        "tle_line1": "1 29762U 99025BC  25360.21126312  .00000953  00000+0  36255-3 0  9995",
        "tle_line2": "2 29762  98.5807 342.6598 0203345 296.3637  82.5568 14.22610152981405"
      },
      "geometry": {
        "type": "Point",
        "coordinates": [
          172.8567677500704,
          48.123145978527745
        ]
      }
    },
    {
      "type": "Feature",
      "properties": {
        "norad_id": 29763,
        "name": "FENGYUN 1C DEB",
        "group": "fengyun-1c-debris",
        "lat": -23.180943166695137,
        "lon": -16.490447987635505,
        "alt_km": 961.298913602237,
        "timestamp": "2025-12-26T17:24:54.990592+00:00",
        "meta_object_name": "FENGYUN 1C DEB",
        "meta_object_id": "1999-025BD",
        "meta_epoch": "2025-12-26T04:10:02.279136",
        "meta_mean_motion": 14.07884963,
        "meta_eccentricity": 0.01280351,
        "meta_inclination": 98.7629,
        "meta_ra_of_asc_node": 339.1867,
        "meta_arg_of_pericenter": 142.6812,
        "meta_mean_anomaly": 278.1666,
        "meta_ephemeris_type": 0,
        "meta_classification_type": "U",
        "meta_norad_cat_id": 29763,
        "meta_element_set_no": 999,
        "meta_rev_at_epoch": 97239,
        "meta_bstar": 0.00027705516,
        "meta_mean_motion_dot": 4.65e-06,
        "meta_mean_motion_ddot": 0,
        "tle_line1": "1 29763U 99025BD  25360.17363749  .00000465  00000+0  27706-3 0  9997",
        "tle_line2": "2 29763  98.7629 339.1867 0128035 142.6812 278.1666 14.07884963972396"
      },
      "geometry": {
        "type": "Point",
        "coordinates": [
          -16.490447987635505,
          -23.180943166695137
        ]
      }
    },
    {
      "type": "Feature",
      "properties": {
        "norad_id": 29765,
        "name": "FENGYUN 1C DEB",
        "group": "fengyun-1c-debris",
        "lat": -66.9114775750566,
        "lon": 39.853876221428365,
        "alt_km": 916.9379697959621,
        "timestamp": "2025-12-26T17:24:54.990603+00:00",
        "meta_object_name": "FENGYUN 1C DEB",
        "meta_object_id": "1999-025BF",
        "meta_epoch": "2025-12-25T00:56:36.278592",
        "meta_mean_motion": 14.02152125,
        "meta_eccentricity": 0.00601058,
        "meta_inclination": 98.8289,
        "meta_ra_of_asc_node": 16.8387,
        "meta_arg_of_pericenter": 58.8107,
        "meta_mean_anomaly": 5.779,
        "meta_ephemeris_type": 0,
        "meta_classification_type": "U",
        "meta_norad_cat_id": 29765,
        "meta_element_set_no": 999,
        "meta_rev_at_epoch": 96923,
        "meta_bstar": -6.8814641e-05,
        "meta_mean_motion_dot": -1.49e-06,
        "meta_mean_motion_ddot": 0,
        "tle_line1": "1 29765U 99025BF  25359.03930878 -.00000149  00000+0 -68815-4 0  9993",
        "tle_line2": "2 29765  98.8289  16.8387 0060105  58.8107   5.7790 14.02152125969239"
      },
      "geometry": {
        "type": "Point",
        "coordinates": [
          39.853876221428365,
          -66.9114775750566
        ]
      }
    },
    {
      "type": "Feature",
      "properties": {
        "norad_id": 29766,
        "name": "FENGYUN 1C DEB",
        "group": "fengyun-1c-debris",
        "lat": -4.575494033060397,
        "lon": 128.89197468230896,
        "alt_km": 860.8219526638359,
        "timestamp": "2025-12-26T17:24:54.990613+00:00",
        "meta_object_name": "FENGYUN 1C DEB",
        "meta_object_id": "1999-025BG",
        "meta_epoch": "2025-12-25T20:09:49.412736",
        "meta_mean_motion": 13.97094688,
        "meta_eccentricity": 0.01455533,
        "meta_inclination": 98.6865,
        "meta_ra_of_asc_node": 308.7559,
        "meta_arg_of_pericenter": 251.7005,
        "meta_mean_anomaly": 163.2022,
        "meta_ephemeris_type": 0,
        "meta_classification_type": "U",
        "meta_norad_cat_id": 29766,
        "meta_element_set_no": 999,
        "meta_rev_at_epoch": 95987,
        "meta_bstar": 0.0009844662,
        "meta_mean_motion_dot": 1.462e-05,
        "meta_mean_motion_ddot": 0,
        "tle_line1": "1 29766U 99025BG  25359.84015524  .00001462  00000+0  98447-3 0  9995",
        "tle_line2": "2 29766  98.6865 308.7559 0145553 251.7005 163.2022 13.97094688959873"
      },
      "geometry": {
        "type": "Point",
        "coordinates": [
          128.89197468230896,
          -4.575494033060397
        ]
      }
    },
    {
      "type": "Feature",
      "properties": {
        "norad_id": 29767,
        "name": "FENGYUN 1C DEB",
        "group": "fengyun-1c-debris",
        "lat": 35.109823215349174,
        "lon": -37.74488084666797,
        "alt_km": 644.5729889413842,
        "timestamp": "2025-12-26T17:24:54.990624+00:00",
        "meta_object_name": "FENGYUN 1C DEB",
        "meta_object_id": "1999-025BH",
        "meta_epoch": "2025-12-25T04:08:57.341760",
        "meta_mean_motion": 14.03473048,
        "meta_eccentricity": 0.03327,
        "meta_inclination": 98.1995,
        "meta_ra_of_asc_node": 326.6698,
        "meta_arg_of_pericenter": 25.9623,
        "meta_mean_anomaly": 87.838,
        "meta_ephemeris_type": 0,
        "meta_classification_type": "U",
        "meta_norad_cat_id": 29767,
        "meta_element_set_no": 999,
        "meta_rev_at_epoch": 95774,
        "meta_bstar": 0.0027809,
        "meta_mean_motion_dot": 7.088e-05,
        "meta_mean_motion_ddot": 0,
        "tle_line1": "1 29767U 99025BH  25359.17288590  .00007088  00000+0  27809-2 0  9990",
        "tle_line2": "2 29767  98.1995 326.6698 0332700  25.9623  87.8380 14.03473048957746"
      },
      "geometry": {
        "type": "Point",
        "coordinates": [
          -37.74488084666797,
          35.109823215349174
        ]
      }
    },
    {
      "type": "Feature",
      "properties": {
        "norad_id": 29769,
        "name": "FENGYUN 1C DEB",
        "group": "fengyun-1c-debris",
        "lat": -58.08814456147538,
        "lon": -136.66583049788701,
        "alt_km": 910.8993816801667,
        "timestamp": "2025-12-26T17:24:54.990634+00:00",
        "meta_object_name": "FENGYUN 1C DEB",
        "meta_object_id": "1999-025BK",
        "meta_epoch": "2025-12-24T15:01:52.245696",
        "meta_mean_motion": 14.13587224,
        "meta_eccentricity": 0.00930986,
        "meta_inclination": 99.1044,
        "meta_ra_of_asc_node": 56.1196,
        "meta_arg_of_pericenter": 97.3136,
        "meta_mean_anomaly": 263.8629,
        "meta_ephemeris_type": 0,
        "meta_classification_type": "U",
        "meta_norad_cat_id": 29769,
        "meta_element_set_no": 999,
        "meta_rev_at_epoch": 96849,
        "meta_bstar": 0.001192372,
        "meta_mean_motion_dot": 2.298e-05,
        "meta_mean_motion_ddot": 0,
        "tle_line1": "1 29769U 99025BK  25358.62629914  .00002298  00000+0  11924-2 0  9999",
        "tle_line2": "2 29769  99.1044  56.1196 0093098  97.3136 263.8629 14.13587224968497"
      },
      "geometry": {
        "type": "Point",
        "coordinates": [
          -136.66583049788701,
          -58.08814456147538
        ]
      }
    }
  ]
}